STARLINK-37892          
1 69485U 26131H   26178.50002315  .00142520  00000+0  73379-3 0  9990
2 69485  97.2833 199.3890 0001288  91.0982 261.2684 15.80783402  3665
STARLINK-37893          
1 69486U 26131J   26178.50002315  .00140333  00000+0  72291-3 0  9993
2 69486  97.2834 199.3907 0000904 109.2466 247.3990 15.80777840  3742
STARLINK-37842          
1 69487U 26131K   26178.50002315  .00077860  00000+0  40397-3 0  9990
2 69487  97.2836 199.3921 0001288  99.8172 261.0955 15.80796381  3661
STARLINK-37449          
1 69488U 26131L   26178.50002315  .00083121  00000+0  43081-3 0  9991
2 69488  97.2837 199.3940 0001059 100.9615 264.2187 15.80803548  3752
STARLINK-37831          
1 69489U 26131M   26178.50002315  .00120889  00000+0  62414-3 0  9996
2 69489  97.2838 199.3960 0000900  98.2999 271.1620 15.80781820  2323
STARLINK-37879          
1 69490U 26131N   26178.50002315  .00088183  00000+0  45678-3 0  9991
2 69490  97.2836 199.3980 0001061  92.1580 281.5698 15.80801489  3665
STARLINK-37856          
1 69491U 26131P   26178.50527786  .00326791  00000+0  16354-2 0  9994
2 69491  97.2825 199.3844 0000235 259.8570 100.2671 15.80924972  3791
STARLINK-37568          
1 69492U 26131Q   26178.50002315  .00098948  00000+0  51212-3 0  9994
2 69492  97.2841 199.4017 0001133  89.2517 293.0333 15.80788603  3758
STARLINK-37855          
1 69493U 26131R   26178.31237704  .00205503  00000+0  10436-2 0  9995
2 69493  97.2841 199.1872 0003189 111.8907 248.2700 15.80916694  3767
STARLINK-37854          
1 69494U 26131S   26178.50345194  .00341286  00000+0  17059-2 0  9997
2 69494  97.2835 199.3865 0000233 241.2505 118.8740 15.80914265  3795
STARLINK-37789          
1 69495U 26131T   26178.50002315  .00101608  00000+0  52564-3 0  9996
2 69495  97.2843 199.4059 0000930 107.3801 287.7255 15.80791678  3749
STARLINK-37839          
1 69496U 26131U   26178.50100455  .00275402  00000+0  13874-2 0  9995
2 69496  97.2835 199.3893 0000898 304.0493  56.0690 15.80914246  2536
STARLINK-37798          
1 69497U 26131V   26178.50002315  .00102157  00000+0  52865-3 0  9992
2 69497  97.2843 199.4081 0001110 106.2093 293.1779 15.80783122  3723
STARLINK-37853          
1 69498U 26131W   26178.50002315  .00113866  00000+0  58834-3 0  9994
2 69498  97.2843 199.4178 0000892  90.4133 330.3372 15.80783702  3723
STARLINK-37849          
1 69499U 26131X   26178.50002315  .00074895  00000+0  38873-3 0  9994
2 69499  97.2842 199.4157 0001020  89.2621 327.2108 15.80797653  3746
STARLINK-37835          
1 69500U 26131Y   26178.50002315  .00096065  00000+0  49741-3 0  9996
2 69500  97.2842 199.4118 0001174 105.7413 302.1892 15.80787504  2643
STARLINK-37843          
1 69501U 26131Z   26178.50002315  .00060251  00000+0  31331-3 0  9991
2 69501  97.2842 199.4132 0001139  99.6973 312.5028 15.80803144  3728
2026-132A               
1 69502U 26132A   26178.43469360  .00001265  00000+0  10897-3 0  9996
2 69502  97.6888 241.9750 0013226 231.6438 128.3597 14.99062992  2311
2026-132B               
1 69503U 26132B   26178.16679626  .00000966  00000+0  84218-4 0  9991
2 69503  97.6919 241.7187 0013116 234.8261 125.1734 14.99147395  2270
BRO-22                  
1 69504U 26132C   26178.16051980  .00000761  00000+0  66297-4 0  9999
2 69504  97.6852 241.7131 0014784 246.9957 112.9707 14.99768679  2272
2026-132D               
1 69505U 26132D   26178.13108146  .00004033  00000+0  28602-3 0  9997
2 69505  97.6859 241.7390 0019055 255.9932 103.9176 15.05198743  2273
VERTECS                 
1 69506U 26132E   26178.41586038  .00002720  00000+0  21793-3 0  9994
2 69506  97.6881 242.0003 0013415 268.0730  91.8957 15.00920166  2302
2026-132F               
1 69507U 26132F   26177.80584495  .00001100  00000+0  86104-4 0  9991
2 69507  97.6873 241.4048 0015163 260.6586  99.2924 15.03045199  2218
STARLINK-37536          
1 69508U 26133A   26178.50002315 -.00020070  00000+0 -98337-4 0  9997
2 69508  53.1590 270.4267 0001052  78.8934  72.0554 15.80882389  3635
STARLINK-37341          
1 69509U 26133B   26178.50002315 -.00116980  00000+0 -59553-3 0  9990
2 69509  53.1593 270.3978 0001221  82.6433  82.5202 15.80932218  3635
STARLINK-36536          
1 69510U 26133C   26178.50002315 -.00264699  00000+0 -13683-2 0  9996
2 69510  53.1591 270.3667 0001077  81.3549  98.9001 15.81040156  3576
STARLINK-37420          
1 69511U 26133D   26178.50002315 -.00051017  00000+0 -25615-3 0  9994
2 69511  53.1593 270.3250 0001011  86.7846 113.0986 15.80899537  3524
STARLINK-37511          
1 69512U 26133E   26178.50002315 -.00125779  00000+0 -64110-3 0  9995
2 69512  53.1592 270.3412 0000932  52.8716 139.4808 15.80938031  3523
STARLINK-37552          
1 69513U 26133F   26178.50002315 -.00103598  00000+0 -52626-3 0  9990
2 69513  53.1593 270.2944 0001080  78.7475 136.3080 15.80929275  3526
STARLINK-37607          
1 69514U 26133G   26178.50002315  .00061664  00000+0  31288-3 0  9997
2 69514  53.1593 270.2797 0000991  69.9615 151.8377 15.80932219  3524
