OBJECT_NAME,OBJECT_ID,EPOCH,MEAN_MOTION,ECCENTRICITY,INCLINATION,RA_OF_ASC_NODE,ARG_OF_PERICENTER,MEAN_ANOMALY,EPHEMERIS_TYPE,CLASSIFICATION_TYPE,NORAD_CAT_ID,ELEMENT_SET_NO,REV_AT_EPOCH,BSTAR,MEAN_MOTION_DOT,MEAN_MOTION_DDOT
STARLINK-37892,2026-131H,2026-06-27T12:00:02.000160,15.80783402,.0001288,97.2833,199.3890,91.0982,261.2684,0,U,69485,999,366,.73379E-3,.14252E-2,0
STARLINK-37893,2026-131J,2026-06-27T12:00:02.000160,15.80777840,.0000904,97.2834,199.3907,109.2466,247.3990,0,U,69486,999,374,.72291E-3,.140333E-2,0
STARLINK-37842,2026-131K,2026-06-27T12:00:02.000160,15.80796381,.0001288,97.2836,199.3921,99.8172,261.0955,0,U,69487,999,366,.40397E-3,.7786E-3,0
STARLINK-37449,2026-131L,2026-06-27T12:00:02.000160,15.80803548,.0001059,97.2837,199.3940,100.9615,264.2187,0,U,69488,999,375,.43081E-3,.83121E-3,0
STARLINK-37831,2026-131M,2026-06-27T12:00:02.000160,15.80781820,.00009,97.2838,199.3960,98.2999,271.1620,0,U,69489,999,232,.62414E-3,.120889E-2,0
STARLINK-37879,2026-131N,2026-06-27T12:00:02.000160,15.80801489,.0001061,97.2836,199.3980,92.1580,281.5698,0,U,69490,999,366,.45678E-3,.88183E-3,0
STARLINK-37856,2026-131P,2026-06-27T12:07:36.007104,15.80924972,.0000235,97.2825,199.3844,259.8570,100.2671,0,U,69491,999,379,.16354E-2,.326791E-2,0
STARLINK-37568,2026-131Q,2026-06-27T12:00:02.000160,15.80788603,.0001133,97.2841,199.4017,89.2517,293.0333,0,U,69492,999,375,.51212E-3,.98948E-3,0
STARLINK-37855,2026-131R,2026-06-27T07:29:49.376256,15.80916694,.0003189,97.2841,199.1872,111.8907,248.2700,0,U,69493,999,376,.10436E-2,.205503E-2,0
STARLINK-37854,2026-131S,2026-06-27T12:04:58.247616,15.80914265,.0000233,97.2835,199.3865,241.2505,118.8740,0,U,69494,999,379,.17059E-2,.341286E-2,0
STARLINK-37789,2026-131T,2026-06-27T12:00:02.000160,15.80791678,.000093,97.2843,199.4059,107.3801,287.7255,0,U,69495,999,374,.52564E-3,.101608E-2,0
STARLINK-37839,2026-131U,2026-06-27T12:01:26.793120,15.80914246,.0000898,97.2835,199.3893,304.0493,56.0690,0,U,69496,999,253,.13874E-2,.275402E-2,0
STARLINK-37798,2026-131V,2026-06-27T12:00:02.000160,15.80783122,.000111,97.2843,199.4081,106.2093,293.1779,0,U,69497,999,372,.52865E-3,.102157E-2,0
STARLINK-37853,2026-131W,2026-06-27T12:00:02.000160,15.80783702,.0000892,97.2843,199.4178,90.4133,330.3372,0,U,69498,999,372,.58834E-3,.113866E-2,0
STARLINK-37849,2026-131X,2026-06-27T12:00:02.000160,15.80797653,.000102,97.2842,199.4157,89.2621,327.2108,0,U,69499,999,374,.38873E-3,.74895E-3,0
STARLINK-37835,2026-131Y,2026-06-27T12:00:02.000160,15.80787504,.0001174,97.2842,199.4118,105.7413,302.1892,0,U,69500,999,264,.49741E-3,.96065E-3,0
STARLINK-37843,2026-131Z,2026-06-27T12:00:02.000160,15.80803144,.0001139,97.2842,199.4132,99.6973,312.5028,0,U,69501,999,372,.31331E-3,.60251E-3,0
2026-132A,2026-132A,2026-06-27T10:25:57.527040,14.99062992,.0013226,97.6888,241.9750,231.6438,128.3597,0,U,69502,999,231,.10897E-3,.1265E-4,0
2026-132B,2026-132B,2026-06-27T04:00:11.196864,14.99147395,.00131161,97.6919,241.7187,234.8261,125.1734,0,U,69503,999,227,.84217751E-4,.966E-5,0
BRO-22,2026-132C,2026-06-27T03:51:08.910720,14.99768679,.00147846,97.6852,241.7131,246.9957,112.9707,0,U,69504,999,227,.66297204E-4,.761E-5,0
2026-132D,2026-132D,2026-06-27T03:08:45.438144,15.05198743,.00190554,97.6859,241.7390,255.9932,103.9176,0,U,69505,999,227,.28602008E-3,.4033E-4,0
VERTECS,2026-132E,2026-06-27T09:58:50.336832,15.00920166,.0013415,97.6881,242.0003,268.0730,91.8957,0,U,69506,999,230,.21793E-3,.272E-4,0
2026-132F,2026-132F,2026-06-26T19:20:25.003680,15.03045199,.00151631,97.6873,241.4048,260.6586,99.2924,0,U,69507,999,221,.86104266E-4,.11E-4,0
STARLINK-37536,2026-133A,2026-06-27T12:00:02.000160,15.80882389,.0001052,53.1590,270.4267,78.8934,72.0554,0,U,69508,999,363,-.98337E-4,-.2007E-3,0
STARLINK-37341,2026-133B,2026-06-27T12:00:02.000160,15.80932218,.0001221,53.1593,270.3978,82.6433,82.5202,0,U,69509,999,363,-.59553E-3,-.11698E-2,0
STARLINK-36536,2026-133C,2026-06-27T12:00:02.000160,15.81040156,.0001077,53.1591,270.3667,81.3549,98.9001,0,U,69510,999,357,-.13683E-2,-.264699E-2,0
STARLINK-37420,2026-133D,2026-06-27T12:00:02.000160,15.80899537,.0001011,53.1593,270.3250,86.7846,113.0986,0,U,69511,999,352,-.25615E-3,-.51017E-3,0
STARLINK-37511,2026-133E,2026-06-27T12:00:02.000160,15.80938031,.0000932,53.1592,270.3412,52.8716,139.4808,0,U,69512,999,352,-.6411E-3,-.125779E-2,0
STARLINK-37552,2026-133F,2026-06-27T12:00:02.000160,15.80929275,.000108,53.1593,270.2944,78.7475,136.3080,0,U,69513,999,352,-.52626E-3,-.103598E-2,0
STARLINK-37607,2026-133G,2026-06-27T12:00:02.000160,15.80932219,.0000991,53.1593,270.2797,69.9615,151.8377,0,U,69514,999,352,.31288E-3,.61664E-3,0
